DMSP 5D-3 F16 (USA 172) 
1 28054U 03048A   26132.93855106 -.00000026  00000+0  10083-4 0  9999
2 28054  98.9912 156.5301 0006017 242.5352 182.5834 14.14479477164502
METEOSAT-9 (MSG-2)      
1 28912U 05049B   26132.90195624  .00000138  00000+0  00000+0 0  9990
2 28912   9.2826  54.5065 0001234 321.4212 225.1390  1.00268657  6644
DMSP 5D-3 F17 (USA 191) 
1 29522U 06050A   26132.95535845  .00000036  00000+0  40912-4 0  9997
2 29522  98.7387 140.2457 0010635 150.6517 209.5256 14.14986889  7449
FENGYUN 3A              
1 32958U 08026A   26132.80543277  .00000030  00000+0  35023-4 0  9992
2 32958  98.6871  74.3041 0007811 225.2353 134.8188 14.19563439930387
GOES 14                 
1 35491U 09033A   26132.63977391 -.00000113  00000+0  00000+0 0  9990
2 35491   1.5981  83.4426 0001771 335.0535 204.0407  1.00117741  6235
DMSP 5D-3 F18 (USA 210) 
1 35951U 09057A   26132.92428483  .00000211  00000+0  13236-3 0  9999
2 35951  98.9026 113.7740 0011043 357.7572   2.3550 14.14876123854602
EWS-G2 (GOES 15)        
1 36411U 10008A   26132.93045571  .00000035  00000+0  00000+0 0  9998
2 36411   1.1822  83.4696 0004635  29.5693 155.9630  1.00273588 59286
COMS 1                  
1 36744U 10032A   26132.71364089 -.00000329  00000+0  00000+0 0  9995
2 36744   4.7151  75.8177 0000901 341.3861 198.3504  1.00270892 50739
FENGYUN 3B              
1 37214U 10059A   26132.95632008 -.00000334  00000+0 -14926-3 0  9995
2 37214  98.9653 178.8164 0020992 287.8189 194.2399 14.14831713802447
SUOMI NPP               
1 37849U 11061A   26132.88595361  .00000039  00000+0  39689-4 0  9999
2 37849  98.7941  74.0067 0002835  74.5576 285.5913 14.19509655753437
METEOSAT-10 (MSG-3)     
1 38552U 12035B   26132.60774830  .00000007  00000+0  00000+0 0  9998
2 38552   4.5877  61.1658 0001829 322.6919  65.3753  1.00270782 50501
METOP-B                 
1 38771U 12049A   26132.92344122  .00000063  00000+0  48766-4 0  9996
2 38771  98.6528 185.1216 0003527  92.3736 267.7846 14.21422593708252
INSAT-3D                
1 39216U 13038B   26132.91859632 -.00000325  00000+0  00000+0 0  9992
2 39216   1.8345  82.9607 0001000 287.6051 320.3237  1.00268959 46725
FENGYUN 3C              
1 39260U 13052A   26132.98961566  .00000041  00000+0  41980-4 0  9995
2 39260  98.4963 108.4854 0015638 122.1076 238.1619 14.15746568653587
METEOR-M 2              
1 40069U 14037A   26132.95043954 -.00000244  00000+0 -92507-4 0  9995
2 40069  98.5096 109.9412 0006526 130.2083 229.9667 14.21450838614312
HIMAWARI-8              
1 40267U 14060A   26132.92076300 -.00000263  00000+0  00000+0 0  9991
2 40267   0.0155 294.2897 0000825 142.8433 265.6941  1.00269185 42408
FENGYUN 2G              
1 40367U 14090A   26132.84136322 -.00000286  00000+0  00000+0 0  9992
2 40367   5.5495  73.2317 0002726 132.3212  67.6246  1.00266142 41642
METEOSAT-11 (MSG-4)     
1 40732U 15034A   26132.89476287  .00000076  00000+0  00000+0 0  9995
2 40732   3.1145  71.2963 0001675 352.1141 138.6431  1.00269235  6860
ELEKTRO-L 2             
1 41105U 15074A   26132.67617411 -.00000102  00000+0  00000+0 0  9997
2 41105   6.6047  70.9497 0001506 271.8063 116.6067  1.00272860 38151
INSAT-3DR               
1 41752U 16054A   26132.69359418 -.00000065  00000+0  00000+0 0  9994
2 41752   0.0805  87.0047 0011178 192.3793 274.7894  1.00272899 35469
HIMAWARI-9              
1 41836U 16064A   26132.84950993  .00000000  00000+0  00000+0 0  9998
2 41836   0.0199 127.9116 0001243 343.5591 205.7510  1.00268385 34853
GOES 16                 
1 41866U 16071A   26132.89419808 -.00000078  00000+0  00000+0 0  9995
2 41866   0.2521  85.6581 0000960 265.4786  96.7475  1.00272050 34757
FENGYUN 4A              
1 41882U 16077A   26132.91746964 -.00000343  00000+0  00000+0 0  9993
2 41882   2.2328  80.6441 0008236 143.9437 100.1582  1.00271194 34576
CYGFM05                 
1 41884U 16078A   26132.37501765  .00014237  00000+0  20498-3 0  9997
2 41884  34.9561 137.4329 0007847 183.2860 176.7813 15.55085590523172
CYGFM04                 
1 41885U 16078B   26132.96395649  .00019629  00000+0  23890-3 0  9994
2 41885  34.9317 102.9211 0008080 229.6866 130.3153 15.59514468523493
CYGFM02                 
1 41886U 16078C   26132.96219506  .00023448  00000+0  25915-3 0  9996
2 41886  34.9400  98.4019 0009286 230.0539 129.9372 15.61975988523650
CYGFM01                 
1 41887U 16078D   26132.37872367  .00014757  00000+0  20759-3 0  9996
2 41887  34.9392 138.7462 0007416 177.8585 182.2172 15.55711094523124
CYGFM08                 
1 41888U 16078E   26132.65296633  .00017566  00000+0  22519-3 0  9991
2 41888  34.9423 117.4010 0009550 208.2115 151.8093 15.58146512523429
CYGFM07                 
1 41890U 16078G   26132.61432514  .00017610  00000+0  22509-3 0  9999
2 41890  34.9439 106.0295 0008394 225.1705 134.8338 15.58237587523444
CYGFM03                 
1 41891U 16078H   26132.96963000  .00018475  00000+0  23603-3 0  9993
2 41891  34.9394 105.6198 0007567 218.5153 141.5033 15.58252242523471
FENGYUN 3D              
1 43010U 17072A   26132.98033826  .00000202  00000+0  11742-3 0  9999
2 43010  99.0107 106.7710 0002165 122.2216 237.9170 14.19732406439998
NOAA 20 (JPSS-1)        
1 43013U 17073A   26132.89905906  .00000014  00000+0  27388-4 0  9995
2 43013  98.7760  72.6783 0001732  50.7199 309.4130 14.19550955439467
GOES 17                 
1 43226U 18022A   26132.87522370 -.00000169  00000+0  00000+0 0  9993
2 43226   0.8472  86.1892 0000605 325.7231  44.3323  1.00271727 30074
FENGYUN 2H              
1 43491U 18050A   26132.98000306 -.00000116  00000+0  00000+0 0  9992
2 43491   2.9403  79.4679 0001387 138.2180  85.2751  1.00273464 29089
METOP-C                 
1 43689U 18087A   26132.87421957  .00000052  00000+0  43698-4 0  9991
2 43689  98.6662 193.1192 0000262 111.7941 248.3264 14.21502066389814
GEO-KOMPSAT-2A          
1 43823U 18100A   26132.84708325 -.00000331  00000+0  00000+0 0  9997
2 43823   0.0490  94.2718 0002038 339.5772 229.9820  1.00269572 27277
METEOR-M2 2             
1 44387U 19038A   26132.91072366 -.00000139  00000+0 -40383-4 0  9991
2 44387  98.9138 119.6786 0002264 102.5970 257.5462 14.24355607356273
ARKTIKA-M 1             
1 47719U 21016A   26129.11511190 -.00000078  00000+0  00000+0 0  9991
2 47719  63.2307  63.2755 7273343 269.7576  14.8669  2.00634688 38002
FENGYUN 3E              
1 49008U 21062A   26132.96818407 -.00000123  00000+0 -37430-4 0  9997
2 49008  98.7505 136.7688 0001757 148.4855 211.6427 14.19901068251584
GOES 18                 
1 51850U 22021A   26132.65190731  .00000000  00000+0  00000+0 0  9990
2 51850   0.0187  62.8654 0000336  69.8719 195.3664  1.00270121  6239
NOAA 21 (JPSS-2)        
1 54234U 22150A   26132.93322415  .00000019  00000+0  29893-4 0  9995
2 54234  98.7048  72.3172 0000888 339.5498  20.5642 14.19558852181549
METEOSAT-12 (MTG-I1)    
1 54743U 22170C   26132.89285619  .00000005  00000+0  00000+0 0  9990
2 54743   0.7421  24.8765 0000792 353.0892 173.7669  1.00272234 12620
TIANMU-1 03             
1 55973U 23039A   26132.92122674  .00010495  00000+0  21509-3 0  9991
2 55973  97.5223 305.5421 0002556 198.9928 161.1226 15.46264577175383
TIANMU-1 04             
1 55974U 23039B   26132.92388153  .00010569  00000+0  21243-3 0  9995
2 55974  97.5160 304.6973 0003274 199.2599 160.8527 15.46826581175392
TIANMU-1 05             
1 55975U 23039C   26132.96509580  .00009895  00000+0  20337-3 0  9992
2 55975  97.5205 305.2154 0001878 222.1148 137.9956 15.46199374175377
TIANMU-1 06             
1 55976U 23039D   26132.92525448  .00010502  00000+0  21171-3 0  9994
2 55976  97.5213 305.7749 0002318 218.7032 141.4051 15.46745930175398
FENGYUN 3G              
1 56232U 23055A   26132.92101938  .00014396  00000+0  23199-3 0  9999
2 56232  49.9918 167.9544 0006004  33.4751 326.6595 15.53130102174525
METEOR-M2 3             
1 57166U 23091A   26132.96728660 -.00000016  00000+0  11677-4 0  9991
2 57166  98.6109 188.6614 0002758 273.3065  86.7799 14.24043616149508
TIANMU-1 07             
1 57399U 23101A   26132.90446648  .00004011  00000+0  14310-3 0  9992
2 57399  97.2622 184.3898 0000805 210.8867 149.2326 15.29445961156251
TIANMU-1 08             
1 57400U 23101B   26132.87166708  .00003671  00000+0  13105-3 0  9999
2 57400  97.2609 184.1324 0002647 217.9649 142.1406 15.29473245156249
TIANMU-1 09             
1 57401U 23101C   26132.92068424  .00004119  00000+0  14669-3 0  9996
2 57401  97.2568 183.6153 0001100 239.5883 120.5249 15.29488413156250
TIANMU-1 10             
1 57402U 23101D   26132.95300351  .00004329  00000+0  15387-3 0  9999
2 57402  97.2647 184.6616 0002493 241.2476 118.8514 15.29523939156256
FENGYUN 3F              
1 57490U 23111A   26132.88242145  .00000019  00000+0  29615-4 0  9997
2 57490  98.6863 203.5463 0001225 114.6831 245.4473 14.19932641143854
ARKTIKA-M 2             
1 58584U 23198A   26131.87078771  .00000209  00000+0  00000+0 0  9990
2 58584  63.2200 158.4122 6892538 267.5395  18.8214  2.00594641 17593
TIANMU-1 11             
1 58645U 23205A   26132.85912777  .00003600  00000+0  14001-3 0  9997
2 58645  97.3470 154.9780 0010610 123.6655 236.5597 15.26617589132137
TIANMU-1 12             
1 58646U 23205B   26132.95962749  .00003766  00000+0  14661-3 0  9998
2 58646  97.3459 154.8401 0009102 108.9300 251.2926 15.26570994132139
TIANMU-1 13             
1 58647U 23205C   26132.92293135  .00003689  00000+0  14428-3 0  9997
2 58647  97.3487 155.0712 0009014  92.6047 267.6224 15.26427095132122
TIANMU-1 14             
1 58648U 23205D   26132.97472105  .00003771  00000+0  14723-3 0  9999
2 58648  97.3423 154.3316 0009838  96.4072 263.8288 15.26472219132136
TIANMU-1 19             
1 58660U 23208A   26132.86896750  .00005495  00000+0  18590-3 0  9991
2 58660  97.4463 249.0126 0006417  86.4326 273.7649 15.31019179131922
TIANMU-1 20             
1 58661U 23208B   26132.93422109  .00005555  00000+0  18101-3 0  9998
2 58661  97.4402 249.6769 0008584  91.9277 268.2948 15.32210633132020
TIANMU-1 21             
1 58662U 23208C   26132.90924897  .00006396  00000+0  19411-3 0  9996
2 58662  97.4459 252.1832 0008504  86.4110 273.8106 15.34425077132154
TIANMU-1 22             
1 58663U 23208D   26132.90472289  .00004936  00000+0  16975-3 0  9990
2 58663  97.4459 249.0131 0005237 104.9417 255.2404 15.30543084131933
TIANMU-1 15             
1 58700U 24004A   26132.97052270  .00003843  00000+0  14933-3 0  9996
2 58700  97.4675 319.1641 0008517 109.9474 250.2683 15.26644553130405
TIANMU-1 16             
1 58701U 24004B   26132.95344343  .00003771  00000+0  14779-3 0  9998
2 58701  97.4621 318.4237 0007463 112.1649 248.0382 15.26372291130407
TIANMU-1 17             
1 58702U 24004C   26132.93889898  .00003797  00000+0  14881-3 0  9998
2 58702  97.4649 318.8809 0006937 116.1007 244.0946 15.26373594130391
TIANMU-1 18             
1 58703U 24004D   26132.98683598  .00003673  00000+0  14296-3 0  9996
2 58703  97.4667 319.1620 0005581 110.3996 249.7843 15.26637333130408
INSAT-3DS               
1 58990U 24033A   26132.90923627 -.00000143  00000+0  00000+0 0  9992
2 58990   0.0639 257.2047 0001421 154.8555 228.0314  1.00271375 46713
METEOR-M2 4             
1 59051U 24039A   26132.94203052 -.00000001  00000+0  19376-4 0  9998
2 59051  98.6991  92.6878 0005914 273.2525  86.7976 14.22425856114254
GOES 19                 
1 60133U 24119A   26132.87808372 -.00000236  00000+0  00000+0 0  9997
2 60133   0.0017  92.6048 0000572  24.2023 354.7699  1.00271820  6616
FENGYUN 3H              
1 65815U 25219A   26132.80785996  .00000019  00000+0  29433-4 0  9994
2 65815  98.6756  74.2684 0001352 103.0264 257.1063 14.19913887 32365
